{"type": "FeatureCollection", "features": [ {"type": "Feature", "properties": {"norad_id": 64202, "name": "GPS BIII-8  (PRN 21)", "group": "gnss", "lat": -54.32433156540269, "lon": -37.808177330084504, "alt_km": 20175.11920936656, "timestamp": "2025-12-18T23:35:49.302789+00:00", "meta": {"OBJECT_NAME": "GPS BIII-8  (PRN 21)", "OBJECT_ID": "2025-116A", "EPOCH": "2025-12-18T15:16:52.654656", "MEAN_MOTION": 2.00558053, "ECCENTRICITY": 0.00059082, "INCLINATION": 55.1097, "RA_OF_ASC_NODE": 38.4029, "ARG_OF_PERICENTER": 309.1838, "MEAN_ANOMALY": 78.7026, "EPHEMERIS_TYPE": 0, "CLASSIFICATION_TYPE": "U", "NORAD_CAT_ID": 64202, "ELEMENT_SET_NO": 999, "REV_AT_EPOCH": 425, "BSTAR": 0, "MEAN_MOTION_DOT": -7e-07, "MEAN_MOTION_DDOT": 0}, "tle": {"line1": "1 64202U 25116A   25352.63672054 -.00000070  00000+0  00000+0 0  9995", "line2": "2 64202  55.1097  38.4029 0005908 309.1838  78.7026  2.00558053  4252"}}, "geometry": {"type": "Point", "coordinates": [-37.808177330084504, -54.32433156540269]}}, {"type": "Feature", "properties": {"norad_id": 65590, "name": "COSMOS 2596 (708K)", "group": "gnss", "lat": 29.134161696447105, "lon": 125.98927645489086, "alt_km": 19160.255034919588, "timestamp": "2025-12-18T23:35:49.302801+00:00", "meta": {"OBJECT_NAME": "COSMOS 2596 (708K)", "OBJECT_ID": "2025-206B", "EPOCH": "2025-12-18T11:34:10.893792", "MEAN_MOTION": 2.13100518, "ECCENTRICITY": 0.001404, "INCLINATION": 64.7412, "RA_OF_ASC_NODE": 321.2751, "ARG_OF_PERICENTER": 306.7014, "MEAN_ANOMALY": 176.2676, "EPHEMERIS_TYPE": 0, "CLASSIFICATION_TYPE": "U", "NORAD_CAT_ID": 65590, "ELEMENT_SET_NO": 999, "REV_AT_EPOCH": 206, "BSTAR": 0, "MEAN_MOTION_DOT": -6.4e-07, "MEAN_MOTION_DDOT": 0}, "tle": {"line1": "1 65590U 25206B   25352.48207053 -.00000064  00000+0  00000+0 0  9995", "line2": "2 65590  64.7412 321.2751 0014040 306.7014 176.2676  2.13100518  2066"}}, "geometry": {"type": "Point", "coordinates": [125.98927645489086, 29.134161696447105]}}, {"type": "Feature", "properties": {"norad_id": 67160, "name": "GALILEO A", "group": "gnss", "lat": 15.343753840300055, "lon": -84.18002746371819, "alt_km": 22937.173700141146, "timestamp": "2025-12-18T23:35:49.302812+00:00", "meta": {"OBJECT_NAME": "GALILEO A", "OBJECT_ID": "2025-302A", "EPOCH": "2025-12-18T03:30:19.807776", "MEAN_MOTION": 1.72901431, "ECCENTRICITY": 0.00080329, "INCLINATION": 54.2385, "RA_OF_ASC_NODE": 107.247, "ARG_OF_PERICENTER": 237.4965, "MEAN_ANOMALY": 122.3848, "EPHEMERIS_TYPE": 0, "CLASSIFICATION_TYPE": "U", "NORAD_CAT_ID": 67160, "ELEMENT_SET_NO": 999, "REV_AT_EPOCH": 2, "BSTAR": 0, "MEAN_MOTION_DOT": -7e-08, "MEAN_MOTION_DDOT": 0}, "tle": {"line1": "1 67160U 25302A   25352.14606259 -.00000007  00000+0  00000+0 0  9998", "line2": "2 67160  54.2385 107.2470 0008032 237.4965 122.3848  1.72901431    27"}}, "geometry": {"type": "Point", "coordinates": [-84.18002746371819, 15.343753840300055]}}, {"type": "Feature", "properties": {"norad_id": 67161, "name": "GALILEO B", "group": "gnss", "lat": 15.000758109563192, "lon": -83.93753221496995, "alt_km": 22935.150008780834, "timestamp": "2025-12-18T23:35:49.302824+00:00", "meta": {"OBJECT_NAME": "GALILEO B", "OBJECT_ID": "2025-302B", "EPOCH": "2025-12-18T03:29:55.932000", "MEAN_MOTION": 1.72967481, "ECCENTRICITY": 0.0004929, "INCLINATION": 54.2283, "RA_OF_ASC_NODE": 107.2235, "ARG_OF_PERICENTER": 250.9394, "MEAN_ANOMALY": 108.9662, "EPHEMERIS_TYPE": 0, "CLASSIFICATION_TYPE": "U", "NORAD_CAT_ID": 67161, "ELEMENT_SET_NO": 999, "REV_AT_EPOCH": 3, "BSTAR": 0, "MEAN_MOTION_DOT": -7e-08, "MEAN_MOTION_DDOT": 0}, "tle": {"line1": "1 67161U 25302B   25352.14578625 -.00000007  00000+0  00000+0 0  9994", "line2": "2 67161  54.2283 107.2235 0004929 250.9394 108.9662  1.72967481    33"}}, "geometry": {"type": "Point", "coordinates": [-83.93753221496995, 15.000758109563192]}}]}